[
    {
        "Altitude(m)": 553763.0297911705,
        "Argument of Periapsis(deg)": 0.033114955553567506,
        "Eccentricity": 0.0,
        "Inclination(deg)": 53.0,
        "Latitude(deg)": 4.636489338158376,
        "Longitude(deg)": -57.47227283964231,
        "Mean Anomaly(deg)": -185.90553566211207,
        "RAAN(deg)": 229.95071684264005,
        "Satellite Name": "Starlink Shell 1 1019",
        "Satellite Number": 1019,
        "Semi-Major Axis(m)": 6931778.249405717,
        "Time(s)": 950
    },
    {
        "Altitude(m)": 553803.9079562533,
        "Argument of Periapsis(deg)": 0.03346353403307874,
        "Eccentricity": 0.0,
        "Inclination(deg)": 53.0,
        "Latitude(deg)": 4.133338147814551,
        "Longitude(deg)": -57.13464809957184,
        "Mean Anomaly(deg)": -185.27870445855538,
        "RAAN(deg)": 229.9501980725626,
        "Satellite Name": "Starlink Shell 1 1019",
        "Satellite Number": 1019,
        "Semi-Major Axis(m)": 6931778.249405717,
        "Time(s)": 960
    },
    {
        "Altitude(m)": 553847.6022665282,
        "Argument of Periapsis(deg)": 0.03381211251258998,
        "Eccentricity": 0.0,
        "Inclination(deg)": 53.0,
        "Latitude(deg)": 3.6300074727030793,
        "Longitude(deg)": -56.79750638649509,
        "Mean Anomaly(deg)": -184.6518732549986,
        "RAAN(deg)": 229.94967930248512,
        "Satellite Name": "Starlink Shell 1 1019",
        "Satellite Number": 1019,
        "Semi-Major Axis(m)": 6931778.249405717,
        "Time(s)": 970
    },
    {
        "Altitude(m)": 553894.115155623,
        "Argument of Periapsis(deg)": 0.034160690992101214,
        "Eccentricity": 0.0,
        "Inclination(deg)": 53.0,
        "Latitude(deg)": 3.126520582876749,
        "Longitude(deg)": -56.460789383029436,
        "Mean Anomaly(deg)": -184.02504205144191,
        "RAAN(deg)": 229.94916053240766,
        "Satellite Name": "Starlink Shell 1 1019",
        "Satellite Number": 1019,
        "Semi-Major Axis(m)": 6931778.249405717,
        "Time(s)": 980
    },
    {
        "Altitude(m)": 553943.4477109597,
        "Argument of Periapsis(deg)": 0.034509269471612446,
        "Eccentricity": 0.0,
        "Inclination(deg)": 53.0,
        "Latitude(deg)": 2.6229006597049085,
        "Longitude(deg)": -56.1244384555343,
        "Mean Anomaly(deg)": -183.3982108478852,
        "RAAN(deg)": 229.9486417623302,
        "Satellite Name": "Starlink Shell 1 1019",
        "Satellite Number": 1019,
        "Semi-Major Axis(m)": 6931778.249405717,
        "Time(s)": 990
    }
]